PHISAT 2                
1 60470U 24149C   26068.78834181  .00008925  00000+0  31421-3 0  9996
2 60470  97.3806 148.6498 0001175 168.6230 191.5037 15.29548631 86792
STARLINK-34530          
1 64491U 25133V   26068.40120749  .00019701  00000+0  67542-3 0  9991
2 64491  53.1589 118.1746 0001292 142.0568 218.0524 15.30205250 41128
